{"fetched_at":"2026-07-19T17:31:11.372Z","source":"https://celestrak.org/NORAD/elements/gp.php?GROUP=planet&FORMAT=JSON","constellation":"superdove","records":[{"OBJECT_NAME":"FLOCK 4G-33","OBJECT_ID":"2025-009CE","EPOCH":"2026-07-19T02:58:15.144960","CLASSIFICATION_TYPE":"U","MEAN_MOTION":15.25823796,"ECCENTRICITY":0.00050606,"INCLINATION":97.3937,"RA_OF_ASC_NODE":279.6343,"ARG_OF_PERICENTER":198.8145,"MEAN_ANOMALY":161.2907,"EPHEMERIS_TYPE":0,"NORAD_CAT_ID":62685,"ELEMENT_SET_NO":999,"REV_AT_EPOCH":8367,"BSTAR":0.00012177957,"MEAN_MOTION_DOT":0.00003042,"MEAN_MOTION_DDOT":0},{"OBJECT_NAME":"FLOCK 4H-1","OBJECT_ID":"2025-276AQ","EPOCH":"2026-07-19T03:49:32.875392","CLASSIFICATION_TYPE":"U","MEAN_MOTION":15.20878312,"ECCENTRICITY":0.00023833,"INCLINATION":97.4163,"RA_OF_ASC_NODE":273.3444,"ARG_OF_PERICENTER":163.2179,"MEAN_ANOMALY":196.9136,"EPHEMERIS_TYPE":0,"NORAD_CAT_ID":66704,"ELEMENT_SET_NO":999,"REV_AT_EPOCH":3529,"BSTAR":0.00015260762,"MEAN_MOTION_DOT":0.00003303,"MEAN_MOTION_DDOT":0},{"OBJECT_NAME":"FLOCK 4H-2","OBJECT_ID":"2025-276AR","EPOCH":"2026-07-19T04:45:22.764096","CLASSIFICATION_TYPE":"U","MEAN_MOTION":15.21151074,"ECCENTRICITY":0.00018526,"INCLINATION":97.4157,"RA_OF_ASC_NODE":273.4326,"ARG_OF_PERICENTER":150.4951,"MEAN_ANOMALY":209.639,"EPHEMERIS_TYPE":0,"NORAD_CAT_ID":66705,"ELEMENT_SET_NO":999,"REV_AT_EPOCH":3530,"BSTAR":0.0001509811,"MEAN_MOTION_DOT":0.00003293,"MEAN_MOTION_DDOT":0},{"OBJECT_NAME":"FLOCK 4H-3","OBJECT_ID":"2025-276AS","EPOCH":"2026-07-19T04:34:21.176832","CLASSIFICATION_TYPE":"U","MEAN_MOTION":15.20270791,"ECCENTRICITY":0.00028761,"INCLINATION":97.4228,"RA_OF_ASC_NODE":273.3482,"ARG_OF_PERICENTER":228.3143,"MEAN_ANOMALY":131.7846,"EPHEMERIS_TYPE":0,"NORAD_CAT_ID":66706,"ELEMENT_SET_NO":999,"REV_AT_EPOCH":3528,"BSTAR":0.00015013224,"MEAN_MOTION_DOT":0.0000319,"MEAN_MOTION_DDOT":0},{"OBJECT_NAME":"FLOCK 4H-4","OBJECT_ID":"2025-276AT","EPOCH":"2026-07-19T03:52:17.196960","CLASSIFICATION_TYPE":"U","MEAN_MOTION":15.20063166,"ECCENTRICITY":0.00034102,"INCLINATION":97.421,"RA_OF_ASC_NODE":273.1845,"ARG_OF_PERICENTER":234.0157,"MEAN_ANOMALY":126.0762,"EPHEMERIS_TYPE":0,"NORAD_CAT_ID":66707,"ELEMENT_SET_NO":999,"REV_AT_EPOCH":3527,"BSTAR":0.00016169786,"MEAN_MOTION_DOT":0.00003421,"MEAN_MOTION_DDOT":0},{"OBJECT_NAME":"FLOCK 4H-5","OBJECT_ID":"2025-276AU","EPOCH":"2026-07-19T03:38:12.857280","CLASSIFICATION_TYPE":"U","MEAN_MOTION":15.20929932,"ECCENTRICITY":0.000157,"INCLINATION":97.416,"RA_OF_ASC_NODE":273.3581,"ARG_OF_PERICENTER":138.0733,"MEAN_ANOMALY":222.0623,"EPHEMERIS_TYPE":0,"NORAD_CAT_ID":66708,"ELEMENT_SET_NO":999,"REV_AT_EPOCH":3529,"BSTAR":0.00015311577,"MEAN_MOTION_DOT":0.00003319,"MEAN_MOTION_DDOT":0},{"OBJECT_NAME":"FLOCK 4H-6","OBJECT_ID":"2025-276AV","EPOCH":"2026-07-19T04:45:31.748832","CLASSIFICATION_TYPE":"U","MEAN_MOTION":15.20630955,"ECCENTRICITY":0.00028953,"INCLINATION":97.4213,"RA_OF_ASC_NODE":273.4485,"ARG_OF_PERICENTER":189.7207,"MEAN_ANOMALY":170.3973,"EPHEMERIS_TYPE":0,"NORAD_CAT_ID":66709,"ELEMENT_SET_NO":999,"REV_AT_EPOCH":3529,"BSTAR":0.00015035111,"MEAN_MOTION_DOT":0.00003229,"MEAN_MOTION_DDOT":0},{"OBJECT_NAME":"FLOCK 4H-7","OBJECT_ID":"2025-276AW","EPOCH":"2026-07-19T04:20:08.972160","CLASSIFICATION_TYPE":"U","MEAN_MOTION":15.20407966,"ECCENTRICITY":0.00006803,"INCLINATION":97.4169,"RA_OF_ASC_NODE":273.1852,"ARG_OF_PERICENTER":252.1981,"MEAN_ANOMALY":107.918,"EPHEMERIS_TYPE":0,"NORAD_CAT_ID":66710,"ELEMENT_SET_NO":999,"REV_AT_EPOCH":3528,"BSTAR":0.00014861828,"MEAN_MOTION_DOT":0.0000317,"MEAN_MOTION_DDOT":0},{"OBJECT_NAME":"FLOCK 4H-8","OBJECT_ID":"2025-276AX","EPOCH":"2026-07-18T10:44:12.507936","CLASSIFICATION_TYPE":"U","MEAN_MOTION":15.20510875,"ECCENTRICITY":0.00020081,"INCLINATION":97.4212,"RA_OF_ASC_NODE":272.6158,"ARG_OF_PERICENTER":249.0396,"MEAN_ANOMALY":111.0624,"EPHEMERIS_TYPE":0,"NORAD_CAT_ID":66711,"ELEMENT_SET_NO":999,"REV_AT_EPOCH":3517,"BSTAR":0.00015033419,"MEAN_MOTION_DOT":0.00003217,"MEAN_MOTION_DDOT":0},{"OBJECT_NAME":"FLOCK 4H-9","OBJECT_ID":"2025-276AY","EPOCH":"2026-07-19T04:25:22.625760","CLASSIFICATION_TYPE":"U","MEAN_MOTION":15.20817788,"ECCENTRICITY":0.00028568,"INCLINATION":97.42,"RA_OF_ASC_NODE":273.4371,"ARG_OF_PERICENTER":197.4749,"MEAN_ANOMALY":162.6389,"EPHEMERIS_TYPE":0,"NORAD_CAT_ID":66712,"ELEMENT_SET_NO":999,"REV_AT_EPOCH":3529,"BSTAR":0.00015415309,"MEAN_MOTION_DOT":0.00003331,"MEAN_MOTION_DDOT":0},{"OBJECT_NAME":"FLOCK 4H-10","OBJECT_ID":"2025-276AZ","EPOCH":"2026-07-19T05:03:39.680352","CLASSIFICATION_TYPE":"U","MEAN_MOTION":15.20191784,"ECCENTRICITY":0.00032142,"INCLINATION":97.4177,"RA_OF_ASC_NODE":273.1677,"ARG_OF_PERICENTER":234.3184,"MEAN_ANOMALY":125.7752,"EPHEMERIS_TYPE":0,"NORAD_CAT_ID":66713,"ELEMENT_SET_NO":999,"REV_AT_EPOCH":3528,"BSTAR":0.00016731933,"MEAN_MOTION_DOT":0.00003555,"MEAN_MOTION_DDOT":0},{"OBJECT_NAME":"FLOCK 4H-11","OBJECT_ID":"2025-276BA","EPOCH":"2026-07-19T03:53:07.762560","CLASSIFICATION_TYPE":"U","MEAN_MOTION":15.23385832,"ECCENTRICITY":0.0001809,"INCLINATION":97.4182,"RA_OF_ASC_NODE":273.732,"ARG_OF_PERICENTER":223.7745,"MEAN_ANOMALY":136.3348,"EPHEMERIS_TYPE":0,"NORAD_CAT_ID":66714,"ELEMENT_SET_NO":999,"REV_AT_EPOCH":3531,"BSTAR":0.00030157061,"MEAN_MOTION_DOT":0.00007103,"MEAN_MOTION_DDOT":0},{"OBJECT_NAME":"FLOCK 4H-12","OBJECT_ID":"2025-276BB","EPOCH":"2026-07-19T04:06:37.666656","CLASSIFICATION_TYPE":"U","MEAN_MOTION":15.20844246,"ECCENTRICITY":0.00023022,"INCLINATION":97.4174,"RA_OF_ASC_NODE":273.359,"ARG_OF_PERICENTER":169.7192,"MEAN_ANOMALY":190.4091,"EPHEMERIS_TYPE":0,"NORAD_CAT_ID":66715,"ELEMENT_SET_NO":999,"REV_AT_EPOCH":3560,"BSTAR":0.00015867246,"MEAN_MOTION_DOT":0.00003433,"MEAN_MOTION_DDOT":0},{"OBJECT_NAME":"FLOCK 4H-13","OBJECT_ID":"2025-276BC","EPOCH":"2026-07-19T04:58:39.690048","CLASSIFICATION_TYPE":"U","MEAN_MOTION":15.20947024,"ECCENTRICITY":0.00021811,"INCLINATION":97.4207,"RA_OF_ASC_NODE":273.5703,"ARG_OF_PERICENTER":138.7484,"MEAN_ANOMALY":221.3917,"EPHEMERIS_TYPE":0,"NORAD_CAT_ID":66716,"ELEMENT_SET_NO":999,"REV_AT_EPOCH":3530,"BSTAR":0.00017079682,"MEAN_MOTION_DOT":0.00003712,"MEAN_MOTION_DDOT":0},{"OBJECT_NAME":"FLOCK 4H-14","OBJECT_ID":"2025-276BD","EPOCH":"2026-07-19T04:00:01.072512","CLASSIFICATION_TYPE":"U","MEAN_MOTION":15.21394031,"ECCENTRICITY":0.00020484,"INCLINATION":97.4189,"RA_OF_ASC_NODE":273.5786,"ARG_OF_PERICENTER":136.0614,"MEAN_ANOMALY":224.0785,"EPHEMERIS_TYPE":0,"NORAD_CAT_ID":66717,"ELEMENT_SET_NO":999,"REV_AT_EPOCH":3455,"BSTAR":0.0001587764,"MEAN_MOTION_DOT":0.00003492,"MEAN_MOTION_DDOT":0},{"OBJECT_NAME":"FLOCK 4H-15","OBJECT_ID":"2025-276BE","EPOCH":"2026-07-19T04:18:50.183136","CLASSIFICATION_TYPE":"U","MEAN_MOTION":15.19910184,"ECCENTRICITY":0.00027792,"INCLINATION":97.4203,"RA_OF_ASC_NODE":273.142,"ARG_OF_PERICENTER":251.9127,"MEAN_ANOMALY":108.1805,"EPHEMERIS_TYPE":0,"NORAD_CAT_ID":66718,"ELEMENT_SET_NO":999,"REV_AT_EPOCH":3527,"BSTAR":0.00014549896,"MEAN_MOTION_DOT":0.00003057,"MEAN_MOTION_DDOT":0}]}
