FLOCK 4G-33             
1 62685U 25009CE  26200.12378640  .00003042  00000+0  12178-3 0  9994
2 62685  97.3937 279.6343 0005060 198.8145 161.2907 15.25823796 83676
FLOCK 4H-1              
1 66704U 25276AQ  26200.15940828  .00003303  00000+0  15261-3 0  9998
2 66704  97.4163 273.3444 0002383 163.2179 196.9136 15.20878312 35298
FLOCK 4H-2              
1 66705U 25276AR  26200.19818014  .00003293  00000+0  15098-3 0  9990
2 66705  97.4157 273.4326 0001852 150.4951 209.6390 15.21151074 35304
FLOCK 4H-3              
1 66706U 25276AS  26200.19052288  .00003190  00000+0  15013-3 0  9997
2 66706  97.4228 273.3482 0002876 228.3143 131.7846 15.20270791 35286
FLOCK 4H-4              
1 66707U 25276AT  26200.16131015  .00003421  00000+0  16170-3 0  9993
2 66707  97.4210 273.1845 0003410 234.0157 126.0762 15.20063166 35272
FLOCK 4H-5              
1 66708U 25276AU  26200.15153770  .00003319  00000+0  15312-3 0  9998
2 66708  97.4160 273.3581 0001570 138.0733 222.0623 15.20929932 35291
FLOCK 4H-6              
1 66709U 25276AV  26200.19828413  .00003229  00000+0  15035-3 0  9998
2 66709  97.4213 273.4485 0002895 189.7207 170.3973 15.20630955 35292
FLOCK 4H-7              
1 66710U 25276AW  26200.18065940  .00003170  00000+0  14862-3 0  9999
2 66710  97.4169 273.1852 0000680 252.1981 107.9180 15.20407966 35282
FLOCK 4H-8              
1 66711U 25276AX  26199.44736699  .00003217  00000+0  15033-3 0  9995
2 66711  97.4212 272.6158 0002008 249.0396 111.0624 15.20510875 35177
FLOCK 4H-9              
1 66712U 25276AY  26200.18428965  .00003331  00000+0  15415-3 0  9995
2 66712  97.4200 273.4371 0002856 197.4749 162.6389 15.20817788 35296
FLOCK 4H-10             
1 66713U 25276AZ  26200.21087593  .00003555  00000+0  16732-3 0  9999
2 66713  97.4177 273.1677 0003214 234.3184 125.7752 15.20191784 35283
FLOCK 4H-11             
1 66714U 25276BA  26200.16189540  .00007103  00000+0  30157-3 0  9999
2 66714  97.4182 273.7320 0001809 223.7745 136.3348 15.23385832 35319
FLOCK 4H-12             
1 66715U 25276BB  26200.17126929  .00003433  00000+0  15867-3 0  9996
2 66715  97.4174 273.3590 0002302 169.7192 190.4091 15.20844246 35604
FLOCK 4H-13             
1 66716U 25276BC  26200.20740382  .00003712  00000+0  17080-3 0  9995
2 66716  97.4207 273.5703 0002181 138.7484 221.3917 15.20947024 35301
FLOCK 4H-14             
1 66717U 25276BD  26200.16667908  .00003492  00000+0  15878-3 0  9991
2 66717  97.4189 273.5786 0002048 136.0614 224.0785 15.21394031 34554
FLOCK 4H-15             
1 66718U 25276BE  26200.17974749  .00003057  00000+0  14550-3 0  9990
2 66718  97.4203 273.1420 0002779 251.9127 108.1805 15.19910184 35275
